IRIDIUM 39              
1 25042U 97069D   25293.85693326  .00000991  00000+0  25357-3 0  9990
2 25042  86.3941 157.3088 0015721 244.5754 115.3823 14.49396954467166
IRIDIUM 38              
1 25043U 97069E   25293.96414622  .00000705  00000+0  22560-3 0  9999
2 25043  86.4020 180.2893 0003863  65.9924 294.1678 14.38244893464032
IRIDIUM 42              
1 25077U 97077A   25293.77677160  .00000634  00000+0  20950-3 0  9994
2 25077  86.4028 186.6847 0002935  79.6603 280.4925 14.36471659459229
IRIDIUM 44              
1 25078U 97077B   25293.94790101  .00000707  00000+0  21677-3 0  9993
2 25078  86.4006 168.2283 0002322  35.5891 324.5463 14.40366485461805
IRIDIUM 45              
1 25104U 97082A   25293.87566838  .00033546  00000+0  10459-2 0  9991
2 25104  86.3595 346.6540 0103981 217.9141 141.4756 15.27854763471193
IRIDIUM 24              
1 25105U 97082B   25293.75841486  .00000899  00000+0  26650-3 0  9990
2 25105  86.3954  27.0166 0012269  32.7920 327.4040 14.42251949461311
IRIDIUM 51              
1 25262U 98018A   25293.86256790  .00081032  00000+0  12119-2 0  9996
2 25262  86.3817 353.1515 0068512 123.7038 237.0780 15.51963841466423
IRIDIUM 57              
1 25273U 98019B   25293.88421938  .00000688  00000+0  23043-3 0  9996
2 25273  86.3909  92.5626 0002141  87.0612 273.0830 14.35987752442822
